O3B FM5                 
1 39188U 13031A   23228.24470926 -.00000027  00000+0  00000+0 0  9996
2 39188   0.0426 343.4145 0003001 160.1171 216.4864  5.00115704185309
O3B FM4                 
1 39189U 13031B   23227.30095237 -.00000028  00000+0  00000+0 0  9992
2 39189   0.0527  15.5114 0002958 126.9851 217.5214  5.00116203185272
O3B FM2                 
1 39190U 13031C   23226.99305222 -.00000029  00000+0  00000+0 0  9997
2 39190   0.0550  20.2961 0002816 121.8339 217.8869  5.00115408185210
O3B PFM                 
1 39191U 13031D   23227.81848558 -.00000028  00000+0  00000+0 0  9993
2 39191   0.0457 354.4418 0002579 147.3352 218.2386  5.00116071185272
O3B FM3                 
1 40079U 14038A   23226.87347410 -.00000029  00000+0  00000+0 0  9995
2 40079   0.0481   8.3641 0000862  67.7390 283.9036  5.00116747166246
O3B FM7                 
1 40080U 14038B   23225.02102885 -.00000030  00000+0  00000+0 0  9990
2 40080   0.0464  13.6882 0004424 129.1165 217.2230  5.00115912166177
O3B FM6                 
1 40081U 14038C   23226.04707840 -.00000030  00000+0  00000+0 0  9996
2 40081   0.0491   8.7419 0002654 130.4577 220.8172  5.00115324166222
O3B FM8                 
1 40082U 14038D   23227.30002508 -.00000028  00000+0  00000+0 0  9993
2 40082   0.0515  11.1035 0002552 132.1407 216.7705  5.00116052166269
O3B FM10                
1 40348U 14083A   23226.72678178 -.00000029  00000+0  00000+0 0  9996
2 40348   0.0499 358.1136 0002614 143.2940 218.6082  5.00115389158166
O3B FM11                
1 40349U 14083B   23227.53966270 -.00000028  00000+0  00000+0 0  9999
2 40349   0.0452 358.6069 0003271 138.6318 222.7840  5.00115600158202
O3B FM12                
1 40350U 14083C   23225.36813835 -.00000030  00000+0  00000+0 0  9991
2 40350   0.0459 359.4806 0002707 136.6362 223.9017  5.00115501158095
O3B FM9                 
1 40351U 14083D   23227.59337170 -.00000028  00000+0  00000+0 0  9999
2 40351   0.0441 358.2874 0002716 144.8188 216.9098  5.00115123158211
DIAMOND RED             
1 42783U 17036U   23227.54871724  .00027925  00000+0  61450-3 0  9998
2 42783  97.1468 261.0758 0005813 230.6860 129.3874 15.43919911341940
DIAMOND GREEN           
1 42785U 17036W   23227.56772123  .00033109  00000+0  69345-3 0  9997
2 42785  97.1455 261.3985 0005474 227.0141 133.0651 15.45350227341955
DIAMOND BLUE            
1 42786U 17036X   23227.54760969  .00029074  00000+0  62246-3 0  9990
2 42786  97.1462 261.2786 0005736 228.4799 131.5959 15.44726714341947
LEO VANTAGE 1           
1 43113U 18004C   23227.92724765  .00002034  00000+0  16358-3 0  9997
2 43113  99.2626 359.3307 0389426 353.6626   5.9720 14.57090503285979
O3B FM15                
1 43231U 18024A   23226.26017318 -.00000029  00000+0  00000+0 0  9991
2 43231   0.0532 357.4278 0002767 139.4717 223.1192  5.00114543 99286
O3B FM16                
1 43232U 18024B   23225.51386907 -.00000030  00000+0  00000+0 0  9994
2 43232   0.0570 355.8092 0002797 141.0544 223.1553  5.00116296 99227
O3B FM14                
1 43233U 18024C   23228.15245253 -.00000027  00000+0  00000+0 0  9992
2 43233   0.0586 355.6614 0002976 144.5327 219.8253  5.00115772 99350
O3B FM13                
1 43234U 18024D   23224.60810359 -.00000030  00000+0  00000+0 0  9998
2 43234   0.0463 346.6045 0002786 135.6695 237.7499  5.00115441 99186
O3B FM20                
1 44112U 19020A   23225.98033989 -.00000030  00000+0  00000+0 0  9999
2 44112   0.0502 358.9750 0003023 132.6436 228.4044  5.00115780 79716
O3B FM19                
1 44113U 19020B   23224.60809966 -.00000030  00000+0  00000+0 0  9994
2 44113   0.0313 342.6171 0004142 163.5209 213.8854  5.00115591 79647
O3B FM17                
1 44114U 19020C   23227.88652344 -.00000028  00000+0  00000+0 0  9991
2 44114   0.0671   8.7709 0002756 128.1787 223.0694  5.00116083 79809
O3B FM18                
1 44115U 19020D   23225.23438669 -.00000030  00000+0  00000+0 0  9994
2 44115   0.0498 358.6394 0002721 140.4362 220.9417  5.00116068 79668
SALSAT                  
1 46495U 20068K   23228.10463806  .00004306  00000+0  28124-3 0  9991
2 46495  97.7726 176.7759 0013305 277.1760  82.7955 15.08318299158109
O3B MPOWER F1           
1 54755U 22174A   23228.04955013 -.00000027  00000+0  00000+0 0  9994
2 54755   0.0418  11.9714 0003992 204.8763  33.1861  5.00111867 13507
O3B MPOWER F2           
1 54756U 22174B   23228.42102463 -.00000026  00000+0  00000+0 0  9999
2 54756   0.0434  16.3176 0005470 188.2649 155.3891  5.00114041 13617
O3B MPOWER F4           
1 56367U 23059A   23223.73367560 -.00000029  00000+0  00000+0 0  9995
2 56367   0.7169 287.4279 0069127  28.4421  43.5769  4.97456041  6490
O3B MPOWER F3           
1 56368U 23059B   23223.83375771 -.00000026  00000+0  00000+0 0  9997
2 56368   1.0478 278.7862 0495736  36.4509 326.8959  5.15085728  6695
